NORAD_CAT_ID,OBJECT_NAME,OBJECT_TYPE,EPOCH,MEAN_MOTION,ECCENTRICITY,INCLINATION,RA_OF_ASC_NODE,ARG_OF_PERICENTER,MEAN_ANOMALY,BSTAR,MEAN_MOTION_DOT,MEAN_MOTION_DDOT,TLE_LINE0,TLE_LINE1,TLE_LINE2,SEMIMAJOR_AXIS,PERIOD,APOGEE,PERIGEE,DECAYED
53163.0,STARLINK-4104,PAYLOAD,2023-01-19 09:36:37,15.08843496,0.0001509,53.2138,265.5295,72.7096,287.4061,9.9549e-05,1.297e-05,0.0,0 STARLINK-4104,1 53163U 22083AH  23019.40042869  .00001297  00000-0  99549-4 0  9990,2 53163  53.2138 265.5295 0001509  72.7096 287.4061 15.08843496 29098,6917.87,95.437,540.779,538.691,0.0
53163.0,STARLINK-4104,PAYLOAD,2023-01-20 01:30:29,15.08831382,0.0001778,53.2139,262.5533,77.236,282.8831,-2.4283e-05,-6.74e-06,0.0,0 STARLINK-4104,1 53163U 22083AH  23020.06283596 -.00000674  00000-0 -24283-4 0  9991,2 53163  53.2139 262.5533 0001778  77.2360 282.8831 15.08831382 29199,6917.906999999999,95.438,541.002,538.5419999999999,0.0
53163.0,STARLINK-4104,PAYLOAD,2023-01-20 09:27:24,15.08840884,0.0001426999999999,53.2143,261.0683,74.3379,285.777,0.00021762,3.177e-05,0.0,0 STARLINK-4104,1 53163U 22083AH  23020.39403472  .00003177  00000-0  21762-3 0  9991,2 53163  53.2143 261.0683 0001427  74.3379 285.7770 15.08840884 28610,6917.878000000001,95.437,540.73,538.756,0.0
53163.0,STARLINK-4104,PAYLOAD,2023-01-20 15:48:57,15.08843137,0.0001297,53.2135,259.8797,71.5049,288.6084,0.00034587,5.221e-05,0.0,0 STARLINK-4104,1 53163U 22083AH  23020.65899527  .00005221  00000-0  34587-3 0  9991,2 53163  53.2135 259.8797 0001297  71.5049 288.6084 15.08843137 29288,6917.871,95.437,540.633,538.839,0.0
53163.0,STARLINK-4104,PAYLOAD,2023-01-21 01:21:15,15.08855695,0.0001233,53.2131,258.0944,77.5766,282.5365,0.00093397,0.00014614,0.0,0 STARLINK-4104,1 53163U 22083AH  23021.05643307  .00014614  00000-0  93397-3 0  9999,2 53163  53.2131 258.0944 0001233  77.5766 282.5365 15.08855695 29345,6917.831999999999,95.437,540.55,538.844,0.0
53163.0,STARLINK-4104,PAYLOAD,2023-01-21 15:39:43,15.0885497,0.0001356,53.2123,255.4197,65.214,294.8993,0.00055208,8.513e-05,0.0,0 STARLINK-4104,1 53163U 22083AH  23021.65259153  .00008513  00000-0  55208-3 0  9997,2 53163  53.2123 255.4197 0001356  65.2140 294.8993 15.08854970 29431,6917.835,95.437,540.638,538.762,0.0
53163.0,STARLINK-4104,PAYLOAD,2023-01-23 01:02:49,15.08841289,9.92e-05,53.2137,249.1718,89.8568,270.2537,3.8695e-05,3.28e-06,0.0,0 STARLINK-4104,1 53163U 22083AH  23023.04362992  .00000328  00000-0  38695-4 0  9996,2 53163  53.2137 249.1718 0000992  89.8568 270.2537 15.08841289 29640,6917.876,95.437,540.428,539.055,0.0
53163.0,STARLINK-4104,PAYLOAD,2023-01-23 20:07:28,15.0882139,0.0001115,53.2132,245.6026,121.5855,238.5246,-0.00011603,-2.133e-05,0.0,0 STARLINK-4104,1 53163U 22083AH  23023.83852515 -.00002133  00000-0 -11603-3 0  9995,2 53163  53.2132 245.6026 0001115 121.5855 238.5246 15.08821390 29767,6917.937,95.439,540.5740000000001,539.031,0.0
53163.0,STARLINK-4104,PAYLOAD,2023-01-24 19:58:15,15.08840501,0.0001242,53.214,241.1425,106.7552,253.3576,0.00024924,3.681e-05,0.0,0 STARLINK-4104,1 53163U 22083AH  23024.83212270  .00003681  00000-0  24924-3 0  9991,2 53163  53.2140 241.1425 0001242 106.7552 253.3576 15.08840501 29913,6917.879,95.438,540.6030000000001,538.885,0.0
53163.0,STARLINK-4104,PAYLOAD,2023-01-25 07:05:57,15.08847392,0.0001064,53.2133,239.0609,100.9135,259.1977,0.00033068,4.98e-05,0.0,0 STARLINK-4104,1 53163U 22083AH  23025.29580125  .00004980  00000-0  33068-3 0  9991,2 53163  53.2133 239.0609 0001064 100.9135 259.1977 15.08847392 29352,6917.858,95.437,540.4590000000001,538.987,0.0
53163.0,STARLINK-4104,PAYLOAD,2023-01-25 19:49:02,15.08848585,0.0001137999999999,53.2131,236.68400000000003,108.9594,251.1522,0.00037437,5.677e-05,0.0,0 STARLINK-4104,1 53163U 22083AH  23025.82572182  .00005677  00000-0  37437-3 0  9992,2 53163  53.2131 236.6840 0001138 108.9594 251.1522 15.08848585 29431,6917.854,95.437,540.506,538.932,0.0
53163.0,STARLINK-4104,PAYLOAD,2023-01-26 00:35:11,15.08854371,0.0001199999999999,53.2133,235.7902,98.6264,261.4864,0.0003502,5.292e-05,0.0,0 STARLINK-4104,1 53163U 22083AH  23026.02443820  .00005292  00000-0  35020-3 0  9990,2 53163  53.2133 235.7902 0001200  98.6264 261.4864 15.08854371 30098,6917.835999999999,95.437,540.5319999999999,538.871,0.0
53163.0,STARLINK-4104,PAYLOAD,2023-01-26 21:15:11,15.08849866,0.0001137999999999,53.2133,231.9256,102.1093,258.0027,5.8261e-06,-1.95e-06,0.0,0 STARLINK-4104,1 53163U 22083AH  23026.88555069 -.00000195  00000-0  58261-5 0  9995,2 53163  53.2133 231.9256 0001138 102.1093 258.0027 15.08849866 30220,6917.85,95.437,540.502,538.928,0.0
53163.0,STARLINK-4104,PAYLOAD,2023-01-27 13:09:03,15.08845726,9.43e-05,53.2132,228.9514,97.7953,262.3146,5.0869e-05,5.22e-06,0.0,0 STARLINK-4104,1 53163U 22083AH  23027.54795214  .00000522  00000-0  50869-4 0  9995,2 53163  53.2132 228.9514 0000943  97.7953 262.3146 15.08845726 29699,6917.863,95.437,540.38,539.076,0.0
53163.0,STARLINK-4104,PAYLOAD,2023-01-27 19:30:35,15.08846352,0.0001049,53.2133,227.7619,100.2383,259.8727,-5.4272e-06,-3.74e-06,0.0,0 STARLINK-4104,1 53163U 22083AH  23027.81291169 -.00000374  00000-0 -54272-5 0  9995,2 53163  53.2133 227.7619 0001049 100.2383 259.8727 15.08846352 30366,6917.861,95.437,540.452,539.0,0.0
53163.0,STARLINK-4104,PAYLOAD,2023-01-28 12:59:50,15.0883982,9.26e-05,53.2132,224.4907,99.2058,260.9039,6.7204e-05,7.82e-06,0.0,0 STARLINK-4104,1 53163U 22083AH  23028.54155513  .00000782  00000-0  67204-4 0  9997,2 53163  53.2132 224.4907 0000926  99.2058 260.9039 15.08839820 30471,6917.881,95.438,540.387,539.105,0.0
53163.0,STARLINK-4104,PAYLOAD,2023-01-28 19:21:24,15.08768413,0.0001205,53.2139,223.3012,112.9346,247.1773,0.0010693,0.00016738,0.0,0 STARLINK-4104,1 53163U 22083AH  23028.80653084  .00016738  00000-0  10693-2 0  9998,2 53163  53.2139 223.3012 0001205 112.9346 247.1773 15.08768413 30513,6918.099,95.442,540.798,539.131,0.0
53163.0,STARLINK-4104,PAYLOAD,2023-01-28 22:32:11,15.08742977,0.0001491,53.2138,222.7064,106.7524,253.3632,0.0014788,0.00023263,0.0,0 STARLINK-4104,1 53163U 22083AH  23028.93902068  .00023263  00000-0  14788-2 0  9991,2 53163  53.2138 222.7064 0001491 106.7524 253.3632 15.08742977 30530,6918.177,95.444,541.073,539.01,0.0
53163.0,STARLINK-4104,PAYLOAD,2023-01-29 19:12:09,15.08841644,0.0001156,53.2137,218.8396,85.1476,274.9648,6.173e-05,6.95e-06,0.0,0 STARLINK-4104,1 53163U 22083AH  23029.80011373  .00000695  00000-0  61730-4 0  9993,2 53163  53.2137 218.8396 0001156  85.1476 274.9648 15.08841644 30668,6917.875,95.437,540.54,538.941,0.0
53163.0,STARLINK-4104,PAYLOAD,2023-01-30 11:06:01,15.08834054,0.0001177,53.2137,215.8656,84.9243,275.1884,4.1487e-05,3.72e-06,0.0,0 STARLINK-4104,1 53163U 22083AH  23030.46251941  .00000372  00000-0  41487-4 0  9993,2 53163  53.2137 215.8656 0001177  84.9243 275.1884 15.08834054 30769,6917.899,95.438,540.578,538.949,0.0
53163.0,STARLINK-4104,PAYLOAD,2023-01-30 14:16:48,15.08832901,0.0001176,53.2137,215.2708,84.9754,275.1373,2.8359e-05,1.63e-06,0.0,0 STARLINK-4104,1 53163U 22083AH  23030.59500089  .00000163  00000-0  28359-4 0  9998,2 53163  53.2137 215.2708 0001176  84.9754 275.1373 15.08832901 30152,6917.902,95.438,540.581,538.954,0.0
53163.0,STARLINK-4104,PAYLOAD,2023-01-30 19:02:57,15.08834441,0.0001194,53.2136,214.3785,88.0675,272.0454,3.9243e-05,3.37e-06,0.0,0 STARLINK-4104,1 53163U 22083AH  23030.79372004  .00000337  00000-0  39243-4 0  9991,2 53163  53.2136 214.3785 0001194  88.0675 272.0454 15.08834441 30183,6917.897,95.438,540.588,538.936,0.0
53163.0,STARLINK-4104,PAYLOAD,2023-01-31 12:32:11,15.08837673,0.000113,53.214,211.1074,87.0024,273.1098,2.4364e-05,1e-06,0.0,0 STARLINK-4104,1 53163U 22083AH  23031.52235987  .00000100  00000-0  24364-4 0  9997,2 53163  53.2140 211.1074 0001130  87.0024 273.1098 15.08837673 30299,6917.888,95.438,540.534,538.971,0.0
53163.0,STARLINK-4104,PAYLOAD,2023-01-31 18:53:44,15.08840596,0.0001159,53.214,209.9179,86.6463,273.4662,4.7694e-05,4.71e-06,0.0,0 STARLINK-4104,1 53163U 22083AH  23031.78731755  .00000471  00000-0  47694-4 0  9991,2 53163  53.2140 209.9179 0001159  86.6463 273.4662 15.08840596 30965,6917.879,95.438,540.545,538.942,0.0
53163.0,STARLINK-4104,PAYLOAD,2023-01-31 22:04:30,15.0884111,0.0001161,53.214,209.3232,86.2441,273.8683,5.1194e-05,5.27e-06,0.0,0 STARLINK-4104,1 53163U 22083AH  23031.91979724  .00000527  00000-0  51194-4 0  9998,2 53163  53.2140 209.3232 0001161  86.2441 273.8683 15.08841110 30357,6917.877,95.437,540.545,538.939,0.0
53163.0,STARLINK-4104,PAYLOAD,2023-02-01 12:22:59,15.08836188,0.0001171,53.214,206.6466,87.6823,272.4303,6.1862e-05,6.97e-06,0.0,0 STARLINK-4104,1 53163U 22083AH  23032.51596101  .00000697  00000-0  61862-4 0  9990,2 53163  53.2140 206.6466 0001171  87.6823 272.4303 15.08836188 30449,6917.892,95.438,540.567,538.947,0.0
53163.0,STARLINK-4104,PAYLOAD,2023-02-02 10:38:23,15.08837372,0.0001194,53.2136,202.4832,83.6353,276.4775,4.5731e-05,4.4e-06,0.0,0 STARLINK-4104,1 53163U 22083AH  23033.44332190  .00000440  00000-0  45731-4 0  9992,2 53163  53.2136 202.4832 0001194  83.6353 276.4775 15.08837372 30582,6917.888,95.438,540.579,538.927,0.0
53163.0,STARLINK-4104,PAYLOAD,2023-02-03 10:29:10,15.08837912,0.0001137,53.2145,198.0232,89.4888,270.6234,5.3321e-05,5.61e-06,0.0,0 STARLINK-4104,1 53163U 22083AH  23034.43692176  .00000561  00000-0  53321-4 0  9993,2 53163  53.2145 198.0232 0001137  89.4888 270.6234 15.08837912 30733,6917.887,95.438,540.538,538.965,0.0
53163.0,STARLINK-4104,PAYLOAD,2023-02-04 03:58:24,15.08838847,0.0001342,53.2142,194.7517,87.2174,272.8972,6.0063e-05,6.68e-06,0.0,0 STARLINK-4104,1 53163U 22083AH  23035.16556164  .00000668  00000-0  60063-4 0  9999,2 53163  53.2142 194.7517 0001342  87.2174 272.8972 15.08838847 31474,6917.884,95.438,540.677,538.821,0.0
